{
    "links": {
        "self": "http://www.neowsapp.com/rest/v1/neo/3836164?api_key=iIulBulltgU6a56xZRHN4H3l9WmuAYTsLGpBGhQ2"
    },
    "id": "3836164",
    "neo_reference_id": "3836164",
    "name": "(2018 VQ6)",
    "designation": "2018 VQ6",
    "nasa_jpl_url": "http://ssd.jpl.nasa.gov/sbdb.cgi?sstr=3836164",
    "absolute_magnitude_h": 26.3,
    "estimated_diameter": {
        "kilometers": {
            "estimated_diameter_min": 0.0146067964,
            "estimated_diameter_max": 0.0326617897
        },
        "meters": {
            "estimated_diameter_min": 14.6067964271,
            "estimated_diameter_max": 32.6617897446
        },
        "miles": {
            "estimated_diameter_min": 0.0090762397,
            "estimated_diameter_max": 0.020295089
        },
        "feet": {
            "estimated_diameter_min": 47.92256199,
            "estimated_diameter_max": 107.1581062656
        }
    },
    "is_potentially_hazardous_asteroid": false,
    "close_approach_data": [
        {
            "close_approach_date": "2018-11-20",
            "close_approach_date_full": "2018-Nov-20 07:29",
            "epoch_date_close_approach": 1542698940000,
            "relative_velocity": {
                "kilometers_per_second": "7.8921684082",
                "kilometers_per_hour": "28411.8062694494",
                "miles_per_hour": "17653.9915122587"
            },
            "miss_distance": {
                "astronomical": "0.0293052285",
                "lunar": "11.3997338865",
                "kilometers": "4383999.763463295",
                "miles": "2724091.135231671"
            },
            "orbiting_body": "Earth"
        },
        {
            "close_approach_date": "2066-12-08",
            "close_approach_date_full": "2066-Dec-08 23:25",
            "epoch_date_close_approach": 3059076300000,
            "relative_velocity": {
                "kilometers_per_second": "2.580776814",
                "kilometers_per_hour": "9290.7965302235",
                "miles_per_hour": "5772.9396551269"
            },
            "miss_distance": {
                "astronomical": "1.6427045958",
                "lunar": "639.0120877662",
                "kilometers": "245745108.570890946",
                "miles": "152698929.7224932148"
            },
            "orbiting_body": "Juptr"
        }
    ],
    "orbital_data": {
        "orbit_id": "4",
        "orbit_determination_date": "2018-11-19 06:41:42",
        "first_observation_date": "2018-11-01",
        "last_observation_date": "2018-11-17",
        "data_arc_in_days": 16,
        "observations_used": 27,
        "orbit_uncertainty": "8",
        "minimum_orbit_intersection": ".010728",
        "jupiter_tisserand_invariant": "3.330",
        "epoch_osculation": "2458427.5",
        "eccentricity": ".5726121650828214",
        "semi_major_axis": "2.32995308422162",
        "inclination": ".2242714748367193",
        "ascending_node_longitude": "34.52457037244676",
        "orbital_period": "1299.030030813007",
        "perihelion_distance": ".9957936041240809",
        "perihelion_argument": "41.48364445352323",
        "aphelion_distance": "3.66411256431916",
        "perihelion_time": "2458456.994143973066",
        "mean_anomaly": "351.8262922500271",
        "mean_motion": ".2771298518593073",
        "equinox": "J2000",
        "orbit_class": {
            "orbit_class_type": "APO",
            "orbit_class_description": "Near-Earth asteroid orbits which cross the Earth’s orbit similar to that of 1862 Apollo",
            "orbit_class_range": "a (semi-major axis) > 1.0 AU; q (perihelion) < 1.017 AU"
        }
    },
    "is_sentry_object": false
}